,id,spkid,full_name,pdes,name,prefix,neo,pha,H,diameter,albedo,diameter_sigma,orbit_id,epoch,epoch_mjd,epoch_cal,equinox,e,a,q,i,om,w,ma,ad,n,tp,tp_cal,per,per_y,moid,moid_ld,sigma_e,sigma_a,sigma_q,sigma_i,sigma_om,sigma_w,sigma_ma,sigma_ad,sigma_n,sigma_tp,sigma_per,class,rms
563158,bK03A02Y,3145512,       (2003 AY2),2003 AY2,,,Y,Y,19.2,,,,28,2459000.5,59000,20200531.0,J2000,0.5638400490501346,1.822686421845182,0.7949828203489803,10.322681254339631,275.02011228370793,285.957161972555,358.6459044011193,2.850390023341384,0.4005310014063022,2459003.8807510384,20200603.380751003,898.806830772165,2.46079898910928,0.0217847,8.477951699,1.9758e-07,7.167999999999999e-08,3.6372e-07,2.8458e-05,7.892399999999999e-05,0.00010165,0.00017478,1.121e-07,2.3626999999999997e-08,0.00043656,5.3021000000000006e-05,APO,0.6094
563159,bK03A03A,3145514,       (2003 AA3),2003 AA3,,,Y,Y,20.2,,,,JPL 51,2459000.5,59000,20200531.0,J2000,0.2893530785303581,1.4208745547025299,1.009740128093901,13.784093547341248,106.404080978079,346.99421499780084,100.8189560921262,1.832008981311159,0.5819296271959016,2458827.250604574,20191209.750604603,618.6315031504816,1.6937207478452598,0.0317783,12.367161010999999,3.6731e-08,5.1984e-09,5.2623e-08,1.3445e-05,8.6799e-06,3.7669e-05,4.1263999999999997e-05,6.7026e-09,3.1936e-09,7.0014e-05,3.395e-06,APO,0.48853
563171,bK03A23C,3145520,       (2003 AC23),2003 AC23,,,Y,Y,21.9,,,,15,2459000.5,59000,20200531.0,J2000,0.5819581223426059,2.170485936807932,0.907354016452156,2.0592121190326242,43.74745555752897,126.4664150689652,143.0395063180614,3.4336178571637084,0.3082255310392779,2458536.4258338017,20190221.925833803,1167.975925894745,3.1977438080622704,0.00667238,2.5966901246000003,4.1646e-07,5.026000000000001e-09,9.018600000000001e-07,7.2105e-06,0.00074517,0.00087037,3.6265e-05,7.950899999999999e-09,1.0705999999999998e-09,0.00011609,4.0569e-06,APO,0.48823999999999995
563172,bK03A23F,3146499,       (2003 AF23),2003 AF23,,,Y,Y,20.9,,,,34,2459000.5,59000,20200531.0,J2000,0.4258926824101736,0.8746661064479091,0.5021522121595466,23.22599952257542,286.7689107866753,43.963910663544254,187.61129228076302,1.247180000736272,1.204871209961103,2459143.576460201,20201021.076460198,298.7871209999465,0.818034554414638,0.0328022,12.765632174,7.909899999999999e-07,1.8625999999999998e-09,6.923199999999999e-07,8.8162e-05,1.3279000000000001e-05,4.4426000000000005e-05,0.00011589,2.6559e-09,3.8487e-09,9.587799999999999e-05,9.544e-07,ATE,0.35589
563269,bK03B21B,3147323,       (2003 BB21),2003 BB21,,,Y,Y,20.9,,,,31,2459000.5,59000,20200531.0,J2000,0.5535693858375931,2.231735056950574,0.996314852122219,4.770621195705512,344.1345692206545,212.8388089516452,55.570611897595064,3.4671552617789287,0.2956242937704444,2458812.522851069,20191125.022851102,1217.7618943575192,3.3340503610062098,0.0277671,10.806122307,1.2613e-07,1.6841e-08,2.8754e-07,1.7585e-05,7.0655e-05,9.487e-05,7.0905999999999995e-06,2.6164000000000002e-08,3.3463000000000003e-09,2.5609e-05,1.3784e-05,APO,0.50113
563301,bK03B47K,3147553,       (2003 BK47),2003 BK47,,,Y,Y,17.8,,,,35,2459000.5,59000,20200531.0,J2000,0.7060511978647982,2.7482855841452642,0.8078552553849438,20.66842681638709,138.86483589854708,235.2381760692461,332.69701668866287,4.688715912905585,0.2163272772471283,2459126.711468377,20201004.2114684,1664.145199723207,4.55618124496429,0.0198019,7.706305423,9.886100000000001e-08,6.6582e-08,2.6982e-07,4.0561999999999996e-05,3.1078e-05,4.1358999999999995e-05,2.5662e-05,1.1359000000000001e-07,7.8614e-09,0.00012282,6.0475e-05,APO,0.6010800000000001
563303,bK03B47R,3147555,       (2003 BR47),2003 BR47,,,Y,Y,21.4,,,,30,2459000.5,59000,20200531.0,J2000,0.5004808736427702,1.6281244087721618,0.8132792822707519,4.422747126072181,314.44417396834166,112.6832898301972,142.9952022445008,2.442969535273573,0.4744306004843062,2458699.096165385,20190803.5961654,758.8043427900864,2.07749306718709,0.00758809,2.9530569852999995,6.2931e-07,4.7516999999999993e-07,8.037600000000001e-07,2.1510999999999998e-05,2.4954000000000002e-05,0.00012783,0.0013837,7.1298e-07,2.077e-07,0.0027846,0.00033219,APO,0.57302
563553,bK03C11G,3147581,       (2003 CG11),2003 CG11,,,Y,Y,20.5,,,,22,2459000.5,59000,20200531.0,J2000,0.7351071013553391,2.59042529359309,0.6861852647423203,21.28477334612681,130.42809939928628,107.18676463105221,39.66381068867403,4.494665322443859,0.2363999965680171,2458832.717380438,20191215.217380397,1522.842661702073,4.16931598001936,0.0190748,7.423339916000001,6.011499999999999e-08,4.3228e-08,1.4797e-07,5.6856000000000006e-05,3.0095e-05,2.9761e-05,2.9158e-05,7.5005e-08,5.9173999999999994e-09,0.00011919,3.8119e-05,APO,0.43683
563674,bK03E16G,3150771,       (2003 EG16),2003 EG16,,,Y,Y,19.3,,,,34,2459000.5,59000,20200531.0,J2000,0.6888968167518595,2.393379121061856,0.7445878632819798,20.377675033725072,151.3412020055704,110.6068108803058,214.163381326689,4.042170378841732,0.2661869908770619,2459548.3728250116,20211129.872825,1352.432734649552,3.7027590271035,0.000951545,0.37031276765,4.4106e-08,7.7213e-09,1.0495999999999998e-07,2.0988000000000003e-05,1.4947000000000001e-05,1.3941e-05,6.2915e-06,1.3040000000000001e-08,1.2880999999999997e-09,2.5839e-05,6.5446e-06,APO,0.43523999999999996
564035,bK03G21G,3152314,       (2003 GG21),2003 GG21,,,Y,Y,22.0,,,,16,2459000.5,59000,20200531.0,J2000,0.7117775422206093,2.142754959729786,0.6175901009122983,10.12019771254401,11.788181753837721,96.54087669322485,185.03454591339488,3.667919818547274,0.3142283105050908,2459557.309963448,20211208.809963398,1145.663799106248,3.13665653417179,0.00577971,2.2492897407,0.00017517,0.0015419000000000001,6.918e-05,0.002574,0.003677,0.00063584,2.0162,0.0026394,0.00033917,7.0174,1.2366,APO,0.45061999999999997
564043,bK03G22Q,3152317,       (2003 GQ22),2003 GQ22,,,Y,Y,21.2,,,,20,2459000.5,59000,20200531.0,J2000,0.1819225499211991,0.8719955639181791,0.7133599074102099,17.020203207049903,199.50536158336917,168.7757406045125,204.4052001747981,1.0306312204261479,1.2104104390446269,2459129.0471397187,20201006.5471397,297.419774637888,0.814290964100994,0.0238868,9.296025956,1.2084000000000002e-07,1.1443e-08,1.038e-07,2.7546e-05,1.6347e-05,5.0695e-05,2.3315e-05,1.3525e-08,2.3826e-08,1.7466e-05,5.8545000000000004e-06,ATE,0.47403
564044,bK03G22R,3152318,       (2003 GR22),2003 GR22,,,Y,Y,21.925,,,,JPL 8,2452738.5,52738,20030409.0,J2000,0.6139034812794636,1.561452460323359,0.6028713590784656,6.223638465870974,23.733081896843252,276.4408195258989,331.3941157632837,2.520033561568253,0.5051390282198684,2452795.1297249636,20030604.629725,712.6750852506,1.9511980431227902,0.00668767,2.6026405339,0.016449000000000002,0.052915,0.005256,0.16141,0.082139,0.20778000000000002,1.807,0.0854,0.025677999999999996,0.6985100000000001,36.227,APO,0.62258
564073,bK03G51P,3152323,       (2003 GP51),2003 GP51,,,Y,Y,22.0,,,,JPL 16,2452751.5,52751,20030422.0,J2000,0.6019877773589212,2.1509113538699642,0.8560890086577164,2.8551720284339046,141.8946509381002,357.5076036155873,17.69061138447277,3.445733699082212,0.3124426450907354,2452694.8796517137,20030224.3796517,1152.211471950168,3.1545830854214,0.0374331,14.567839527,0.0016765999999999999,0.0084759,0.00023282,0.0051795,0.063387,0.063141,0.11316,0.013578,0.0018468,0.027512,6.8106,APO,0.6088399999999999
564289,bK03H00M,3153509,       (2003 HM),2003 HM,,,Y,Y,22.2,,,,JPL 41,2459000.5,59000,20200531.0,J2000,0.2698836947365103,0.8134836663988722,0.5939376889033418,26.27389064868886,30.46322405754591,19.318598818304558,262.61105871515684,1.033029643894402,1.3433241358020758,2459072.998467562,20200811.4984676,267.991909328012,0.733721859898732,0.00678852,2.6418883284,2.3428e-07,3.4439e-10,1.9053e-07,2.2088000000000003e-05,3.8714e-06,6.7481e-05,0.00012385,4.3733000000000003e-10,8.530399999999999e-10,9.2206e-05,1.7018e-07,ATE,0.45871000000000006
564302,bK03H16N,3153516,       (2003 HN16),2003 HN16,,,Y,Y,22.3,,,,25,2459000.5,59000,20200531.0,J2000,0.21076819152318102,1.288273025213156,1.016746049500882,26.189945181436986,215.4762468900869,339.01902941528164,261.1873558835735,1.559800000925431,0.6740501410660283,2459147.095391197,20201024.5953912,534.0848967565682,1.46224475498034,0.022128000000000002,8.61155376,1.7199000000000002e-07,5.0041000000000005e-08,2.6048999999999997e-07,2.9293000000000002e-05,4.3745e-06,0.00021267,0.00038574,6.0589e-08,3.9274e-08,0.0005808,3.1119e-05,APO,0.5656899999999999
564826,bK03M00U,3157020,       (2003 MU),2003 MU,,,Y,Y,20.4,,,,39,2459000.5,59000,20200531.0,J2000,0.4950212437459652,2.053041849747879,1.036742519823167,5.8968081345690475,143.6378141437519,175.60718540680838,253.4198471468852,3.069341179672591,0.3350482628402977,2459318.603881362,20210414.1038814,1074.472068436289,2.94174419831975,0.0248396,9.666827132,2.9215e-08,2.4998999999999998e-08,5.8971e-08,6.451900000000001e-06,3.7378e-05,3.8343e-05,3.8973e-05,3.7374e-08,6.1195e-09,0.00012208,1.9625e-05,AMO,0.55157
564830,bK03M02S,3157022,       (2003 MS2),2003 MS2,,,Y,Y,21.3,,,,JPL 49,2459000.5,59000,20200531.0,J2000,0.1262939102038791,1.0416463449887978,0.9100927550305834,20.028714452165467,100.8612518491563,254.6383666093923,264.5746783459699,1.173199934947012,0.9270937054758506,2459103.429532463,20200910.9295325,388.310262353925,1.06313555743717,0.0232819,9.060617022999999,3.3511e-08,8.053899999999999e-10,3.4613e-08,1.2920999999999999e-05,3.7941000000000002e-06,1.3424e-05,1.2380999999999999e-05,9.0711e-10,1.0752e-09,1.345e-05,4.5036e-07,APO,0.41308999999999996
564833,bK03M04K,3157028,       (2003 MK4),2003 MK4,,,Y,Y,20.9,,,,36,2459000.5,59000,20200531.0,J2000,0.1812302213024299,1.080439015771994,0.884630813839856,22.31775209430078,282.60097773333086,109.6155709803145,294.3694633069508,1.276247217704132,0.8776142896334289,2459075.28289434,20200813.7828943,410.2029835343367,1.1230745613534199,0.00177191,0.6895742147,1.7171e-07,4.2323999999999996e-09,1.8422999999999998e-07,3.8287e-05,9.8227e-06,3.5894e-05,4.5021e-05,4.9995e-09,5.1569e-09,5.1611000000000004e-05,2.4103e-06,APO,0.5058199999999999
